[{"OBJECT_NAME":"RADARSAT-2","OBJECT_ID":"2007-061A","EPOCH":"2026-03-09T23:01:05.689632","MEAN_MOTION":14.2996427,"ECCENTRICITY":0.00012561,"INCLINATION":98.582,"RA_OF_ASC_NODE":77.296,"ARG_OF_PERICENTER":84.478,"MEAN_ANOMALY":275.6546,"EPHEMERIS_TYPE":0,"CLASSIFICATION_TYPE":"U","NORAD_CAT_ID":32382,"ELEMENT_SET_NO":999,"REV_AT_EPOCH":95177,"BSTAR":-6.0240739e-5,"MEAN_MOTION_DOT":-1.99e-6,"MEAN_MOTION_DDOT":0},{"OBJECT_NAME":"UNKNOWN","OBJECT_ID":"","EPOCH":"2026-03-08T12:34:25.284000","MEAN_MOTION":14.30648878,"ECCENTRICITY":0.0070444,"INCLINATION":65.7817,"RA_OF_ASC_NODE":101.779,"ARG_OF_PERICENTER":255.8891,"MEAN_ANOMALY":254.3933,"EPHEMERIS_TYPE":0,"CLASSIFICATION_TYPE":"U","NORAD_CAT_ID":87426,"ELEMENT_SET_NO":999,"REV_AT_EPOCH":63485,"BSTAR":0.0023695,"MEAN_MOTION_DOT":6.285e-5,"MEAN_MOTION_DDOT":0}]
